IRIDIUM 7 [-]           
1 24793U 97020B   24101.94797089  .00000412  00000+0  13743-3 0  9991
2 24793  86.4013 357.9899 0002434  88.9113 271.2362 14.35148505409880
IRIDIUM 5 [-]           
1 24795U 97020D   24102.54645376  .00004296  00000+0  41798-3 0  9996
2 24795  86.3871 281.4340 0122031 238.5283 120.3970 14.86778838421193
IRIDIUM 4 [-]           
1 24796U 97020E   24101.78901553  .00000441  00000+0  14485-3 0  9995
2 24796  86.4006 355.2235 0002196  90.4856 269.6593 14.36069315410394
IRIDIUM 914 [-]         
1 24836U 97030A   24102.48636123  .00000537  00000+0  16475-3 0  9994
2 24836  86.3990   4.7939 0002091 136.4978 223.6386 14.39915225407082
IRIDIUM 16 [-]          
1 24841U 97030F   24101.87740427  .00000588  00000+0  18865-3 0  9996
2 24841  86.4085  26.8398 0004078  66.0572 294.1053 14.37804009405125
IRIDIUM 911 [-]         
1 24842U 97030G   24101.85971270  .00000725  00000+0  19608-3 0  9996
2 24842  86.4511  26.0313 0016591  97.0518 263.2572 14.46411078412565
IRIDIUM 17 [-]          
1 24870U 97034B   24101.94331950  .00000591  00000+0  19339-3 0  9998
2 24870  86.3960  56.4225 0002625  48.6335 311.5088 14.36889104401491
IRIDIUM 920 [-]         
1 24871U 97034C   24102.19494725  .00000606  00000+0  18361-3 0  9998
2 24871  86.4013  36.5520 0013749  70.0435 290.2243 14.40615269404626
